IRIDIUM 57 [-]          
1 25273U 98019B   23284.59577454  .00000996  00000+0  34347-3 0  9998
2 25273  86.3989  42.6029 0002122  91.8512 268.2928 14.34934508336628
IRIDIUM 63 [-]          
1 25286U 98021B   23284.57089092  .00000833  00000+0  28324-3 0  9997
2 25286  86.4015 339.5877 0002398  93.2718 266.8753 14.35441422335641
IRIDIUM 69 [-]          
1 25319U 98026A   23284.60173425  .00001126  00000+0  35428-3 0  9996
2 25319  86.4038 354.6740 0000926 173.1790 186.9421 14.39611694334606
IRIDIUM 71 [-]          
1 25320U 98026B   23284.58833864  .00001018  00000+0  31751-3 0  9990
2 25320  86.4025 349.5137 0001517  26.3590 333.7686 14.39946276335110
IRIDIUM 73 [-]          
1 25344U 98032C   23284.60746720  .00001103  00000+0  27943-3 0  9993
2 25344  86.4384 307.3445 0001632  93.4701 266.6690 14.50062390341457
IRIDIUM 82 [-]          
1 25467U 98051A   23284.37613915  .00015320  00000+0  89606-3 0  9993
2 25467  86.3967  43.2084 0148103  53.8374 307.6455 15.02843346330881
IRIDIUM 2 [-]           
1 25527U 98066A   23284.55877465  .00047903  00000+0  11317-2 0  9993
2 25527  85.5150 100.6961 0004371 193.7461 166.3674 15.41643325369056
